$$SOE
2460721.500000000, A.D. 2025-Feb-15 00:00:00.0000, 4.236082547525411E+08, -4.605580799335520E+07, -3.344141634567762E+07,
2460728.500000000, A.D. 2025-Feb-22 00:00:00.0000, 4.256717255030516E+08, -3.585219121935756E+07, -3.333805725125484E+07,
2460735.500000000, A.D. 2025-Mar-01 00:00:00.0000, 4.274725104845651E+08, -2.562647655719780E+07, -3.321412382103376E+07,
2460742.500000000, A.D. 2025-Mar-08 00:00:00.0000, 4.290114269956113E+08, -1.538508923770381E+07, -3.306984249240082E+07,
2460749.500000000, A.D. 2025-Mar-15 00:00:00.0000, 4.302894223352619E+08, -5.134368477196675E+06, -3.290544737014934E+07,
2460756.500000000, A.D. 2025-Mar-22 00:00:00.0000, 4.313075671309121E+08, 5.119433649538368E+06, -3.272117962617483E+07,
2460763.500000000, A.D. 2025-Mar-29 00:00:00.0000, 4.320670501780893E+08, 1.537015092159811E+07, -3.251728722292934E+07,
2460770.500000000, A.D. 2025-Apr-05 00:00:00.0000, 4.325691751162522E+08, 2.561170242001394E+07, -3.229402473389434E+07,
2460777.500000000, A.D. 2025-Apr-12 00:00:00.0000, 4.328153570149181E+08, 3.583809282765041E+07, -3.205165307588912E+07,
2460784.500000000, A.D. 2025-Apr-19 00:00:00.0000, 4.328071186834338E+08, 4.604341271073110E+07, -3.179043920810083E+07,
2460791.500000000, A.D. 2025-Apr-26 00:00:00.0000, 4.325460869758803E+08, 5.622183858948486E+07, -3.151065583933568E+07,
2460798.500000000, A.D. 2025-May-03 00:00:00.0000, 4.320339892040707E+08, 6.636763282723531E+07, -3.121258115227090E+07,
2460805.500000000, A.D. 2025-May-10 00:00:00.0000, 4.312726496862104E+08, 7.647514335636714E+07, -3.089649854648202E+07,
2460812.500000000, A.D. 2025-May-17 00:00:00.0000, 4.302639864668519E+08, 8.653880320945099E+07, -3.056269640678959E+07,
2460819.500000000, A.D. 2025-May-24 00:00:00.0000, 4.290100083808694E+08, 9.655312980958074E+07, -3.021146791714499E+07,
2460826.500000000, A.D. 2025-May-31 00:00:00.0000, 4.275128128768908E+08, 1.065127243382865E+08, -2.984311093271865E+07,
2460833.500000000, A.D. 2025-Jun-07 00:00:00.0000, 4.257745841948974E+08, 1.164122723936404E+08, -2.945792777443903E+07,
2460840.500000000, A.D. 2025-Jun-14 00:00:00.0000, 4.237975895312948E+08, 1.262465452814907E+08, -2.905622478305253E+07,
2460847.500000000, A.D. 2025-Jun-21 00:00:00.0000, 4.215841744094262E+08, 1.360103986760779E+08, -2.863831201156032E+07,
2460854.500000000, A.D. 2025-Jun-28 00:00:00.0000, 4.191367603814368E+08, 1.456987704197167E+08, -2.820450319854003E+07,
2460861.500000000, A.D. 2025-Jul-05 00:00:00.0000, 4.164578435407535E+08, 1.553066796241751E+08, -2.775511570649537E+07,
2460868.500000000, A.D. 2025-Jul-12 00:00:00.0000, 4.135499926517287E+08, 1.648292262747309E+08, -2.729047038136154E+07,
2460875.500000000, A.D. 2025-Jul-19 00:00:00.0000, 4.104158470838597E+08, 1.742615907669635E+08, -2.681089139715786E+07,
2460882.500000000, A.D. 2025-Jul-26 00:00:00.0000, 4.070581147574154E+08, 1.835990333237953E+08, -2.631670610920356E+07,
2460889.500000000, A.D. 2025-Aug-02 00:00:00.0000, 4.034795701614612E+08, 1.928368933181856E+08, -2.580824491954796E+07,
2460896.500000000, A.D. 2025-Aug-09 00:00:00.0000, 3.996830524624760E+08, 2.019705884913146E+08, -2.528584115728782E+07,
2460903.500000000, A.D. 2025-Aug-16 00:00:00.0000, 3.956714637758606E+08, 2.109956140088947E+08, -2.474983098535431E+07,
2460910.500000000, A.D. 2025-Aug-23 00:00:00.0000, 3.914477678903278E+08, 2.199075413786053E+08, -2.420055335878587E+07,
2460917.500000000, A.D. 2025-Aug-30 00:00:00.0000, 3.870149897726939E+08, 2.287020179477451E+08, -2.363835000597016E+07,
2460924.500000000, A.D. 2025-Sep-06 00:00:00.0000, 3.823762144319656E+08, 2.373747679851847E+08, -2.306356522046679E+07,
2460931.500000000, A.D. 2025-Sep-13 00:00:00.0000, 3.775345834701527E+08, 2.459215928704113E+08, -2.247654551241009E+07,
2460938.500000000, A.D. 2025-Sep-20 00:00:00.0000, 3.724932925941006E+08, 2.543383687492720E+08, -2.187763955388327E+07,
2460945.500000000, A.D. 2025-Sep-27 00:00:00.0000, 3.672555911444103E+08, 2.626210447689370E+08, -2.126719826071872E+07,
2460952.500000000, A.D. 2025-Oct-04 00:00:00.0000, 3.618247816202505E+08, 2.707656424334044E+08, -2.064557478106785E+07,
2460959.500000000, A.D. 2025-Oct-11 00:00:00.0000, 3.562042188230033E+08, 2.787682551395869E+08, -2.001312443302901E+07,
2460966.500000000, A.D. 2025-Oct-18 00:00:00.0000, 3.503973088995681E+08, 2.866250476223842E+08, -1.937020463940270E+07,
2460973.500000000, A.D. 2025-Oct-25 00:00:00.0000, 3.444075084219462E+08, 2.943322553222163E+08, -1.871717487116577E+07,
2460980.500000000, A.D. 2025-Nov-01 00:00:00.0000, 3.382383235393764E+08, 3.018861836927795E+08, -1.805439660175574E+07,
2460987.500000000, A.D. 2025-Nov-08 00:00:00.0000, 3.318933092341217E+08, 3.092832074199437E+08, -1.738223327769104E+07,
2460994.500000000, A.D. 2025-Nov-15 00:00:00.0000, 3.253760688253170E+08, 3.165197694959884E+08, -1.670105032374045E+07,
2461001.500000000, A.D. 2025-Nov-22 00:00:00.0000, 3.186902541207101E+08, 3.235923803724104E+08, -1.601121520160398E+07,
2461008.500000000, A.D. 2025-Nov-29 00:00:00.0000, 3.118395660604561E+08, 3.304976183284239E+08, -1.531309741543111E+07,
2461015.500000000, A.D. 2025-Dec-06 00:00:00.0000, 3.048277535708874E+08, 3.372321309206719E+08, -1.460706826627004E+07,
2461022.500000000, A.D. 2025-Dec-13 00:00:00.0000, 2.976586110586259E+08, 3.437926341489797E+08, -1.389350067042316E+07,
2461029.500000000, A.D. 2025-Dec-20 00:00:00.0000, 2.903359780390229E+08, 3.501759103659375E+08, -1.317276927870899E+07,
2461036.500000000, A.D. 2025-Dec-27 00:00:00.0000, 2.828637398238912E+08, 3.563788075226032E+08, -1.244525058639440E+07,
2461043.500000000, A.D. 2026-Jan-03 00:00:00.0000, 2.752458278063387E+08, 3.623982391362674E+08, -1.171132294995789E+07,
2461050.500000000, A.D. 2026-Jan-10 00:00:00.0000, 2.674862194499623E+08, 3.682311843037910E+08, -1.097136657589580E+07,
2461057.500000000, A.D. 2026-Jan-17 00:00:00.0000, 2.595889382126405E+08, 3.738746876714369E+08, -1.022576351005527E+07,
2461064.500000000, A.D. 2026-Jan-24 00:00:00.0000, 2.515580534804270E+08, 3.793258593863298E+08, -9.474897632438719E+06,
2461071.500000000, A.D. 2026-Jan-31 00:00:00.0000, 2.433976805324134E+08, 3.845818750246474E+08, -8.719154659876123E+06,
2461078.500000000, A.D. 2026-Feb-07 00:00:00.0000, 2.351119805954102E+08, 3.896399754418606E+08, -7.958922166519046E+06,
2461085.500000000, A.D. 2026-Feb-14 00:00:00.0000, 2.267051612389003E+08, 3.944974665327549E+08, -7.194589646256030E+06,
2461092.500000000, A.D. 2026-Feb-21 00:00:00.0000, 2.181814774958757E+08, 3.991517194815940E+08, -6.426548605163366E+06,
2461099.500000000, A.D. 2026-Feb-28 00:00:00.0000, 2.095452326231233E+08, 4.036001726575922E+08, -5.655192490044087E+06,
2461106.500000000, A.D. 2026-Mar-07 00:00:00.0000, 2.008007764383061E+08, 4.078403332057117E+08, -4.880916423116654E+06,
2461113.500000000, A.D. 2026-Mar-14 00:00:00.0000, 1.919525040056215E+08, 4.118697760042034E+08, -4.104117187512308E+06,
2461120.500000000, A.D. 2026-Mar-21 00:00:00.0000, 1.830048564529198E+08, 4.156861428911864E+08, -3.325193390171230E+06,
2461127.500000000, A.D. 2026-Mar-28 00:00:00.0000, 1.739623219097644E+08, 4.192871431892627E+08, -2.544545533565134E+06,
2461134.500000000, A.D. 2026-Apr-04 00:00:00.0000, 1.648294359600477E+08, 4.226705545623490E+08, -1.762576019366950E+06,
2461141.500000000, A.D. 2026-Apr-11 00:00:00.0000, 1.556107818800803E+08, 4.258342238445961E+08, -9.796891381621957E+05,
2461148.500000000, A.D. 2026-Apr-18 00:00:00.0000, 1.463109908176557E+08, 4.287760678344613E+08, -1.962910598892868E+05,
2461155.500000000, A.D. 2026-Apr-25 00:00:00.0000, 1.369347419533668E+08, 4.314940740693696E+08, 5.872101725250781E+05,
2461162.500000000, A.D. 2026-May-02 00:00:00.0000, 1.274867626704691E+08, 4.339863015538415E+08, 1.370404641658783E+06,
2461169.500000000, A.D. 2026-May-09 00:00:00.0000, 1.179718288545495E+08, 4.362508813787301E+08, 2.152880529900402E+06,
2461176.500000000, A.D. 2026-May-16 00:00:00.0000, 1.083947656987398E+08, 4.382860173741807E+08, 2.934224046648830E+06,
2461183.500000000, A.D. 2026-May-23 00:00:00.0000, 9.876044906510775E+07, 4.400899878226527E+08, 3.714019387475818E+06,
2461190.500000000, A.D. 2026-May-30 00:00:00.0000, 8.907380532303554E+07, 4.416611485526890E+08, 4.491848942099512E+06,
2461197.500000000, A.D. 2026-Jun-06 00:00:00.0000, 7.933980934327242E+07, 4.429979341379799E+08, 5.267293513103217E+06,
2461204.500000000, A.D. 2026-Jun-13 00:00:00.0000, 6.956348430801710E+07, 4.440988574032955E+08, 6.039932225827128E+06,
2461211.500000000, A.D. 2026-Jun-20 00:00:00.0000, 5.974990283344661E+07, 4.449625101670467E+08, 6.809342414475352E+06,
2461218.500000000, A.D. 2026-Jun-27 00:00:00.0000, 4.990418770305184E+07, 4.455875648809192E+08, 7.575099612435400E+06,
2461225.500000000, A.D. 2026-Jul-04 00:00:00.0000, 4.003151220694222E+07, 4.459727763921591E+08, 8.336777583628118E+06,
2461232.500000000, A.D. 2026-Jul-11 00:00:00.0000, 3.013710033623536E+07, 4.461169836979134E+08, 9.093948360953540E+06,
2461239.500000000, A.D. 2026-Jul-18 00:00:00.0000, 2.022622692049056E+07, 4.460191117188482E+08, 9.846182285566777E+06,
2461246.500000000, A.D. 2026-Jul-25 00:00:00.0000, 1.030421772776852E+07, 4.456781730961652E+08, 1.059304804514065E+07,
2461253.500000000, A.D. 2026-Aug-01 00:00:00.0000, 3.764495703398627E+05, 4.450932699651489E+08, 1.133411270299920E+07,
2461260.500000000, A.D. 2026-Aug-08 00:00:00.0000, -9.551649374511747E+06, 4.442635956705348E+08, 1.206894169578817E+07,
2461267.500000000, A.D. 2026-Aug-15 00:00:00.0000, -1.947459861947518E+07, 4.431884368756664E+08, 1.279709879880163E+07,
2461274.500000000, A.D. 2026-Aug-22 00:00:00.0000, -2.938686456468838E+07, 4.418671772892966E+08, 1.351814622894329E+07,
2461281.500000000, A.D. 2026-Aug-29 00:00:00.0000, -3.928286213105247E+07, 4.402993016378905E+08, 1.423164498338151E+07,
2461288.500000000, A.D. 2026-Sep-05 00:00:00.0000, -4.915695670243432E+07, 4.384843970124282E+08, 1.493715498440841E+07,
$$EOE